STARLINK-2228           
1 48576U 21041Z   26170.70468545  .00001904  00000+0  73096-4 0  9995
2 48576  53.1607 346.4749 0001238  90.1052 270.0092 15.31705363281276
STARLINK-2231           
1 48577U 21041AA  26170.72948471  .00000595  00000+0  30931-4 0  9995
2 48577  53.1606  12.2042 0001175  97.5716 262.5419 15.31698317280906
STARLINK-2232           
1 48578U 21041AB  26170.82267547  .00005137  00000+0  17714-3 0  9995
2 48578  53.1604  11.5993 0001157  70.7755 289.3372 15.31707742280928
STARLINK-2234           
1 48580U 21041AD  26170.85848750  .00000344  00000+0  22837-4 0  9990
2 48580  53.1628 345.7071 0001358  96.5180 263.5976 15.31701993281294
STARLINK-2235           
1 48581U 21041AE  26170.72903755  .00000883  00000+0  40203-4 0  9999
2 48581  53.1605 349.1497 0001231  98.7083 261.4058 15.31701063281225
STARLINK-2236           
1 48582U 21041AF  26170.83335647  .00094058  00000+0  24469-2 0  9992
2 48582  53.0535 349.3716 0001246  68.8930 355.0581 15.38151710  5880
STARLINK-2237           
1 48583U 21041AG  26170.33896300  .00000994  00000+0  43805-4 0  9999
2 48583  53.1596  36.0990 0001282  85.4187 274.6961 15.31694115280520
STARLINK-2241           
1 48586U 21041AK  26169.91948730  .00003035  00000+0  10950-3 0  9992
2 48586  53.1592  37.9894 0001180  88.3198 271.7939 15.31712131280457
STARLINK-2245           
1 48589U 21041AN  26170.71082338  .00000305  00000+0  21599-4 0  9997
2 48589  53.1604  12.1649 0001085  81.3434 278.7691 15.31701710280900
STARLINK-2250           
1 48593U 21041AS  26170.30444422  .00001817  00000+0  70280-4 0  9993
2 48593  53.1601  27.1772 0001294  93.8801 266.2349 15.31708462280658
STARLINK-2251           
1 48594U 21041AT  26170.68257770 -.00000322  00000+0  11826-5 0  9996
2 48594  53.1622   0.4004 0000926  83.8056 276.3050 15.29350802281061
STARLINK-2252           
1 48595U 21041AU  26170.33428925  .00003298  00000+0  11797-3 0  9990
2 48595  53.1593  36.0373 0001501  83.8202 276.2970 15.31709429281792
STARLINK-2253           
1 48596U 21041AV  26170.33701968  .00001910  00000+0  73247-4 0  9990
2 48596  53.1596  26.6639 0000879  87.3145 272.7957 15.31713658281120
STARLINK-2255           
1 48597U 21041AW  26170.83335647 -.00004996  00000+0 -14928-3 0  9992
2 48597  53.1597  24.3235 0001341  84.7917 108.0003 15.31708889  5905
STARLINK-2713           
1 48602U 21041BB  26170.72670963  .00001276  00000+0  52848-4 0  9990
2 48602  53.1593 359.1346 0000824  80.2851 279.8243 15.31719787282340
STARLINK-2714           
1 48603U 21041BC  26170.71523580 -.00002345  00000+0 -68934-4 0  9995
2 48603  53.1603   0.2422 0001208 100.5799 259.5337 15.29361275282325
STARLINK-2757           
1 48604U 21041BD  26170.34361099  .00000630  00000+0  32057-4 0  9990
2 48604  53.1595  36.0151 0000967  84.8163 275.2949 15.31708523281790
TYVAK-0130              
1 48606U 21041BF  26170.72775858  .00005377  00000+0  20922-3 0  9996
2 48606  52.9940  14.2875 0010247 170.4227 189.6967 15.27587016280771
SBIRS GEO-5 (USA 315)   
1 48618U 21042A   26170.34124360 -.00000275  00000+0  00000+0 0  9998
2 48618   5.1004 329.1539 0001392 118.8471  36.2188  1.00270923 18793
HAIYANG-2D              
1 48621U 21043A   26170.82280119 -.00000063  00000+0  16933-4 0  9993
2 48621  66.0001 298.1374 0011460 268.5956  91.3799 13.83370647256916
STARLINK-2739           
1 48639U 21044B   26170.84324005  .00009947  00000+0  33194-3 0  9994
2 48639  53.1606 358.6063 0000931  80.9092 279.2015 15.31693159279473
STARLINK-2736           
1 48640U 21044C   26170.74070197  .00001891  00000+0  72678-4 0  9996
2 48640  53.1607 359.0571 0001092  92.5317 267.5810 15.31706777279455
STARLINK-2754           
1 48641U 21044D   26170.69846083  .00000062  00000+0  13764-4 0  9996
2 48641  53.1617 359.5267 0001377  84.1677 275.9481 15.31701968279450
STARLINK-2646           
1 48642U 21044E   26170.69877773  .00001220  00000+0  51085-4 0  9992
2 48642  53.1601 359.3733 0001274  90.6522 269.4625 15.31700718279457
STARLINK-2704           
1 48643U 21044F   26170.74037580  .00003242  00000+0  11619-3 0  9997
2 48643  53.1602 359.1123 0001316  83.4976 276.6175 15.31703366279463
STARLINK-2695           
1 48644U 21044G   26170.68912514  .00000348  00000+0  22971-4 0  9998
2 48644  53.1608 359.5253 0001156 106.7374 253.3754 15.31704562279454
STARLINK-2732           
1 48646U 21044J   26170.73105524  .00000547  00000+0  29371-4 0  9993
2 48646  53.1612 359.1698 0001104  78.3961 281.7165 15.31701882279463
STARLINK-2521           
1 48648U 21044L   26170.73572714  .00001432  00000+0  57881-4 0  9995
2 48648  53.1605 359.2665 0000977 103.1371 256.9739 15.31704181279467
STARLINK-2673           
1 48649U 21044M   26170.71706458  .00000657  00000+0  32922-4 0  9995
2 48649  53.1609 359.1669 0001067  81.6038 278.5085 15.31695428279452
STARLINK-2672           
1 48650U 21044N   26170.72639634  .00000778  00000+0  36826-4 0  9990
2 48650  53.1604 359.2570 0001004  95.2853 264.8262 15.31706038279453
