OBJECT_NAME,OBJECT_ID,EPOCH,MEAN_MOTION,ECCENTRICITY,INCLINATION,RA_OF_ASC_NODE,ARG_OF_PERICENTER,MEAN_ANOMALY,EPHEMERIS_TYPE,CLASSIFICATION_TYPE,NORAD_CAT_ID,ELEMENT_SET_NO,REV_AT_EPOCH,BSTAR,MEAN_MOTION_DOT,MEAN_MOTION_DDOT
STARLINK-2228,2021-041Z,2026-06-19T16:54:44.822880,15.31705363,.0001238,53.1607,346.4749,90.1052,270.0092,0,U,48576,999,28127,.73096E-4,.1904E-4,0
STARLINK-2231,2021-041AA,2026-06-19T17:30:27.478944,15.31698317,.0001175,53.1606,12.2042,97.5716,262.5419,0,U,48577,999,28090,.30931E-4,.595E-5,0
STARLINK-2232,2021-041AB,2026-06-19T19:44:39.160608,15.31707742,.0001157,53.1604,11.5993,70.7755,289.3372,0,U,48578,999,28092,.17714E-3,.5137E-4,0
STARLINK-2234,2021-041AD,2026-06-19T20:36:13.320000,15.31701993,.0001358,53.1628,345.7071,96.5180,263.5976,0,U,48580,999,28129,.22837E-4,.344E-5,0
STARLINK-2235,2021-041AE,2026-06-19T17:29:48.844320,15.31701063,.0001231,53.1605,349.1497,98.7083,261.4058,0,U,48581,999,28122,.40203E-4,.883E-5,0
STARLINK-2236,2021-041AF,2026-06-19T20:00:01.999008,15.38151710,.0001246,53.0535,349.3716,68.8930,355.0581,0,U,48582,999,588,.24469E-2,.94058E-3,0
STARLINK-2237,2021-041AG,2026-06-19T08:08:06.403200,15.31694115,.00012825,53.1596,36.0990,85.4187,274.6961,0,U,48583,999,28052,.43805185E-4,.994E-5,0
STARLINK-2241,2021-041AK,2026-06-18T22:04:03.702720,15.31712131,.000118,53.1592,37.9894,88.3198,271.7939,0,U,48586,999,28045,.1095E-3,.3035E-4,0
STARLINK-2245,2021-041AN,2026-06-19T17:03:35.140032,15.31701710,.0001085,53.1604,12.1649,81.3434,278.7691,0,U,48589,999,28090,.21599E-4,.305E-5,0
STARLINK-2250,2021-041AS,2026-06-19T07:18:23.980608,15.31708462,.0001294,53.1601,27.1772,93.8801,266.2349,0,U,48593,999,28065,.70280295E-4,.1817E-4,0
STARLINK-2251,2021-041AT,2026-06-19T16:22:54.713280,15.29350802,.0000926,53.1622,0.4004,83.8056,276.3050,0,U,48594,999,28106,.11826E-5,-.322E-5,0
STARLINK-2252,2021-041AU,2026-06-19T08:01:22.591200,15.31709429,.00015018,53.1593,36.0373,83.8202,276.2970,0,U,48595,999,28179,.11797247E-3,.3298E-4,0
STARLINK-2253,2021-041AV,2026-06-19T08:05:18.500352,15.31713658,.00008797,53.1596,26.6639,87.3145,272.7957,0,U,48596,999,28112,.73247034E-4,.191E-4,0
STARLINK-2255,2021-041AW,2026-06-19T20:00:01.999008,15.31708889,.0001341,53.1597,24.3235,84.7917,108.0003,0,U,48597,999,590,-.14928E-3,-.4996E-4,0
STARLINK-2713,2021-041BB,2026-06-19T17:26:27.712032,15.31719787,.0000824,53.1593,359.1346,80.2851,279.8243,0,U,48602,999,28234,.52848E-4,.1276E-4,0
STARLINK-2714,2021-041BC,2026-06-19T17:09:56.373120,15.29361275,.0001208,53.1603,0.2422,100.5799,259.5337,0,U,48603,999,28232,-.68934E-4,-.2345E-4,0
STARLINK-2757,2021-041BD,2026-06-19T08:14:47.989536,15.31708523,.00009674,53.1595,36.0151,84.8163,275.2949,0,U,48604,999,28179,.32057025E-4,.63E-5,0
TYVAK-0130,2021-041BF,2026-06-19T17:27:58.341312,15.27587016,.0010247,52.9940,14.2875,170.4227,189.6967,0,U,48606,999,28077,.20922E-3,.5377E-4,0
SBIRS GEO-5 (USA 315),2021-042A,2026-06-19T08:11:23.447040,1.00270923,.00013921,5.1004,329.1539,118.8471,36.2188,0,U,48618,999,1879,0,-.275E-5,0
HAIYANG-2D,2021-043A,2026-06-19T19:44:50.022816,13.83370647,.001146,66.0001,298.1374,268.5956,91.3799,0,U,48621,999,25691,.16933E-4,-.63E-6,0
STARLINK-2739,2021-044B,2026-06-19T20:14:15.940320,15.31693159,.0000931,53.1606,358.6063,80.9092,279.2015,0,U,48639,999,27947,.33194E-3,.9947E-4,0
STARLINK-2736,2021-044C,2026-06-19T17:46:36.650208,15.31706777,.0001092,53.1607,359.0571,92.5317,267.5810,0,U,48640,999,27945,.72678E-4,.1891E-4,0
STARLINK-2754,2021-044D,2026-06-19T16:45:47.015712,15.31701968,.0001377,53.1617,359.5267,84.1677,275.9481,0,U,48641,999,27945,.13764E-4,.62E-6,0
STARLINK-2646,2021-044E,2026-06-19T16:46:14.395872,15.31700718,.0001274,53.1601,359.3733,90.6522,269.4625,0,U,48642,999,27945,.51085E-4,.122E-4,0
STARLINK-2704,2021-044F,2026-06-19T17:46:08.469120,15.31703366,.0001316,53.1602,359.1123,83.4976,276.6175,0,U,48643,999,27946,.11619E-3,.3242E-4,0
STARLINK-2695,2021-044G,2026-06-19T16:32:20.412096,15.31704562,.0001156,53.1608,359.5253,106.7374,253.3754,0,U,48644,999,27945,.22971E-4,.348E-5,0
STARLINK-2732,2021-044J,2026-06-19T17:32:43.172736,15.31701882,.0001104,53.1612,359.1698,78.3961,281.7165,0,U,48646,999,27946,.29371E-4,.547E-5,0
STARLINK-2521,2021-044L,2026-06-19T17:39:26.824896,15.31704181,.0000977,53.1605,359.2665,103.1371,256.9739,0,U,48648,999,27946,.57881E-4,.1432E-4,0
STARLINK-2673,2021-044M,2026-06-19T17:12:34.379712,15.31695428,.0001067,53.1609,359.1669,81.6038,278.5085,0,U,48649,999,27945,.32922E-4,.657E-5,0
STARLINK-2672,2021-044N,2026-06-19T17:26:00.643776,15.31706038,.0001004,53.1604,359.2570,95.2853,264.8262,0,U,48650,999,27945,.36826E-4,.778E-5,0
